CCSDS_OMM_VERS = 2.0
CREATION_DATE  = 
ORIGINATOR     = 

OBJECT_NAME    = IDEFIX & ARIANE 42P R/B
OBJECT_ID      = 2002-021B
CENTER_NAME    = EARTH
REF_FRAME      = TEME
TIME_SYSTEM    = UTC
MEAN_ELEMENT_THEORY = SGP/SGP4

EPOCH          = 2025-12-25T19:10:12.179712
MEAN_MOTION    = 14.30959485
ECCENTRICITY   = .0012733
INCLINATION    = 98.5803
RA_OF_ASC_NODE = 294.3211
ARG_OF_PERICENTER = 48.3783
MEAN_ANOMALY   = 311.8489

EPHEMERIS_TYPE = 0
CLASSIFICATION_TYPE = U
NORAD_CAT_ID   = 27422
ELEMENT_SET_NO = 999
REV_AT_EPOCH   = 23345
BSTAR          = .14121E-3
MEAN_MOTION_DOT = .328E-5
MEAN_MOTION_DDOT = 0

CCSDS_OMM_VERS = 2.0
CREATION_DATE  = 
ORIGINATOR     = 

OBJECT_NAME    = AQUA
OBJECT_ID      = 2002-022A
CENTER_NAME    = EARTH
REF_FRAME      = TEME
TIME_SYSTEM    = UTC
MEAN_ELEMENT_THEORY = SGP/SGP4

EPOCH          = 2025-12-24T19:18:33.414624
MEAN_MOTION    = 14.61757572
ECCENTRICITY   = .00018094
INCLINATION    = 98.4055
RA_OF_ASC_NODE = 319.8810
ARG_OF_PERICENTER = 102.1365
MEAN_ANOMALY   = 317.5475

EPHEMERIS_TYPE = 0
CLASSIFICATION_TYPE = U
NORAD_CAT_ID   = 27424
ELEMENT_SET_NO = 999
REV_AT_EPOCH   = 25779
BSTAR          = .19560508E-3
MEAN_MOTION_DOT = .926E-5
MEAN_MOTION_DDOT = 0

CCSDS_OMM_VERS = 2.0
CREATION_DATE  = 
ORIGINATOR     = 

OBJECT_NAME    = CZ-4B R/B
OBJECT_ID      = 2002-024C
CENTER_NAME    = EARTH
REF_FRAME      = TEME
TIME_SYSTEM    = UTC
MEAN_ELEMENT_THEORY = SGP/SGP4

EPOCH          = 2025-12-25T17:47:07.908000
MEAN_MOTION    = 14.14530571
ECCENTRICITY   = .0049384
INCLINATION    = 98.8980
RA_OF_ASC_NODE = 48.4664
ARG_OF_PERICENTER = 232.2758
MEAN_ANOMALY   = 237.9035

EPHEMERIS_TYPE = 0
CLASSIFICATION_TYPE = U
NORAD_CAT_ID   = 27432
ELEMENT_SET_NO = 999
REV_AT_EPOCH   = 21878
BSTAR          = .45768E-4
MEAN_MOTION_DOT = .44E-6
MEAN_MOTION_DDOT = 0

CCSDS_OMM_VERS = 2.0
CREATION_DATE  = 
ORIGINATOR     = 

OBJECT_NAME    = MIDORI II (ADEOS-II)
OBJECT_ID      = 2002-056A
CENTER_NAME    = EARTH
REF_FRAME      = TEME
TIME_SYSTEM    = UTC
MEAN_ELEMENT_THEORY = SGP/SGP4

EPOCH          = 2025-12-25T17:41:15.283680
MEAN_MOTION    = 14.29214219
ECCENTRICITY   = .0000851
INCLINATION    = 98.7656
RA_OF_ASC_NODE = 312.7626
ARG_OF_PERICENTER = 146.1948
MEAN_ANOMALY   = 213.9288

EPHEMERIS_TYPE = 0
CLASSIFICATION_TYPE = U
NORAD_CAT_ID   = 27597
ELEMENT_SET_NO = 999
REV_AT_EPOCH   = 19973
BSTAR          = .14029E-3
MEAN_MOTION_DOT = .311E-5
MEAN_MOTION_DDOT = 0

CCSDS_OMM_VERS = 2.0
CREATION_DATE  = 
ORIGINATOR     = 

OBJECT_NAME    = H-2A R/B
OBJECT_ID      = 2002-056E
CENTER_NAME    = EARTH
REF_FRAME      = TEME
TIME_SYSTEM    = UTC
MEAN_ELEMENT_THEORY = SGP/SGP4

EPOCH          = 2025-12-25T19:13:53.653152
MEAN_MOTION    = 14.33687298
ECCENTRICITY   = .0070861
INCLINATION    = 98.3086
RA_OF_ASC_NODE = 318.0392
ARG_OF_PERICENTER = 22.6991
MEAN_ANOMALY   = 38.3522

EPHEMERIS_TYPE = 0
CLASSIFICATION_TYPE = U
NORAD_CAT_ID   = 27601
ELEMENT_SET_NO = 999
REV_AT_EPOCH   = 20352
BSTAR          = .16225E-3
MEAN_MOTION_DOT = .421E-5
MEAN_MOTION_DDOT = 0

CCSDS_OMM_VERS = 2.0
CREATION_DATE  = 
ORIGINATOR     = 

OBJECT_NAME    = CZ-4B R/B
OBJECT_ID      = 2003-049C
CENTER_NAME    = EARTH
REF_FRAME      = TEME
TIME_SYSTEM    = UTC
MEAN_ELEMENT_THEORY = SGP/SGP4

EPOCH          = 2025-12-25T20:51:01.308096
MEAN_MOTION    = 14.54921629
ECCENTRICITY   = .0049389
INCLINATION    = 98.6799
RA_OF_ASC_NODE = 346.9292
ARG_OF_PERICENTER = 96.8146
MEAN_ANOMALY   = 263.8673

EPHEMERIS_TYPE = 0
CLASSIFICATION_TYPE = U
NORAD_CAT_ID   = 28059
ELEMENT_SET_NO = 999
REV_AT_EPOCH   = 17586
BSTAR          = .11295E-3
MEAN_MOTION_DOT = .442E-5
MEAN_MOTION_DDOT = 0

CCSDS_OMM_VERS = 2.0
CREATION_DATE  = 
ORIGINATOR     = 

OBJECT_NAME    = CZ-2C R/B
OBJECT_ID      = 2004-012C
CENTER_NAME    = EARTH
REF_FRAME      = TEME
TIME_SYSTEM    = UTC
MEAN_ELEMENT_THEORY = SGP/SGP4

EPOCH          = 2025-12-25T17:31:17.622912
MEAN_MOTION    = 15.56480106
ECCENTRICITY   = .0016663
INCLINATION    = 97.7393
RA_OF_ASC_NODE = 53.4314
ARG_OF_PERICENTER = 219.5735
MEAN_ANOMALY   = 140.4303

EPHEMERIS_TYPE = 0
CLASSIFICATION_TYPE = U
NORAD_CAT_ID   = 28222
ELEMENT_SET_NO = 999
REV_AT_EPOCH   = 19274
BSTAR          = .54618E-3
MEAN_MOTION_DOT = .38919E-3
MEAN_MOTION_DDOT = 0

CCSDS_OMM_VERS = 2.0
CREATION_DATE  = 
ORIGINATOR     = 

OBJECT_NAME    = SL-16 R/B
OBJECT_ID      = 2004-021B
CENTER_NAME    = EARTH
REF_FRAME      = TEME
TIME_SYSTEM    = UTC
MEAN_ELEMENT_THEORY = SGP/SGP4

EPOCH          = 2025-12-25T10:05:45.606336
MEAN_MOTION    = 14.14579851
ECCENTRICITY   = .0004604
INCLINATION    = 71.0004
RA_OF_ASC_NODE = 28.3537
ARG_OF_PERICENTER = 178.7045
MEAN_ANOMALY   = 181.4090

EPHEMERIS_TYPE = 0
CLASSIFICATION_TYPE = U
NORAD_CAT_ID   = 28353
ELEMENT_SET_NO = 999
REV_AT_EPOCH   = 11233
BSTAR          = .10931E-3
MEAN_MOTION_DOT = .162E-5
MEAN_MOTION_DDOT = 0

CCSDS_OMM_VERS = 2.0
CREATION_DATE  = 
ORIGINATOR     = 

OBJECT_NAME    = CZ-4B R/B
OBJECT_ID      = 2004-035C
CENTER_NAME    = EARTH
REF_FRAME      = TEME
TIME_SYSTEM    = UTC
MEAN_ELEMENT_THEORY = SGP/SGP4

EPOCH          = 2025-12-25T15:55:14.125152
MEAN_MOTION    = 15.27577878
ECCENTRICITY   = .0031765
INCLINATION    = 97.3593
RA_OF_ASC_NODE = 29.8350
ARG_OF_PERICENTER = 229.4184
MEAN_ANOMALY   = 130.4290

EPHEMERIS_TYPE = 0
CLASSIFICATION_TYPE = U
NORAD_CAT_ID   = 28415
ELEMENT_SET_NO = 999
REV_AT_EPOCH   = 16860
BSTAR          = .31231E-3
MEAN_MOTION_DOT = .8473E-4
MEAN_MOTION_DDOT = 0

CCSDS_OMM_VERS = 2.0
CREATION_DATE  = 
ORIGINATOR     = 

OBJECT_NAME    = CZ-2C R/B
OBJECT_ID      = 2004-046B
CENTER_NAME    = EARTH
REF_FRAME      = TEME
TIME_SYSTEM    = UTC
MEAN_ELEMENT_THEORY = SGP/SGP4

EPOCH          = 2025-12-25T18:58:43.487040
MEAN_MOTION    = 14.26948428
ECCENTRICITY   = .013986
INCLINATION    = 98.1997
RA_OF_ASC_NODE = 274.3581
ARG_OF_PERICENTER = 13.9108
MEAN_ANOMALY   = 346.5865

EPHEMERIS_TYPE = 0
CLASSIFICATION_TYPE = U
NORAD_CAT_ID   = 28480
ELEMENT_SET_NO = 999
REV_AT_EPOCH   = 9796
BSTAR          = .12618E-3
MEAN_MOTION_DOT = .299E-5
MEAN_MOTION_DDOT = 0

CCSDS_OMM_VERS = 2.0
CREATION_DATE  = 
ORIGINATOR     = 

OBJECT_NAME    = ARIANE 5 R/B
OBJECT_ID      = 2004-049H
CENTER_NAME    = EARTH
REF_FRAME      = TEME
TIME_SYSTEM    = UTC
MEAN_ELEMENT_THEORY = SGP/SGP4

EPOCH          = 2025-12-25T12:31:50.682432
MEAN_MOTION    = 14.85044595
ECCENTRICITY   = .0083514
INCLINATION    = 98.2528
RA_OF_ASC_NODE = 160.2624
ARG_OF_PERICENTER = 230.9740
MEAN_ANOMALY   = 128.4019

EPHEMERIS_TYPE = 0
CLASSIFICATION_TYPE = U
NORAD_CAT_ID   = 28499
ELEMENT_SET_NO = 999
REV_AT_EPOCH   = 13478
BSTAR          = .15934E-3
MEAN_MOTION_DOT = .1382E-4
MEAN_MOTION_DDOT = 0

CCSDS_OMM_VERS = 2.0
CREATION_DATE  = 
ORIGINATOR     = 

OBJECT_NAME    = CZ-2D R/B
OBJECT_ID      = 2005-024B
CENTER_NAME    = EARTH
REF_FRAME      = TEME
TIME_SYSTEM    = UTC
MEAN_ELEMENT_THEORY = SGP/SGP4

EPOCH          = 2025-12-25T12:57:15.017760
MEAN_MOTION    = 15.53926865
ECCENTRICITY   = .0003485
INCLINATION    = 97.3631
RA_OF_ASC_NODE = 7.3282
ARG_OF_PERICENTER = 312.7118
MEAN_ANOMALY   = 47.3841

EPHEMERIS_TYPE = 0
CLASSIFICATION_TYPE = U
NORAD_CAT_ID   = 28738
ELEMENT_SET_NO = 999
REV_AT_EPOCH   = 12824
BSTAR          = .47713E-3
MEAN_MOTION_DOT = .30742E-3
MEAN_MOTION_DDOT = 0

