IDEFIX & ARIANE 42P R/B 
1 27422U 02021B   25359.79875208  .00000328  00000+0  14121-3 0  9996
2 27422  98.5803 294.3211 0012733  48.3783 311.8489 14.30959485233452
AQUA                    
1 27424U 02022A   25358.80455341  .00000926  00000+0  19561-3 0  9999
2 27424  98.4055 319.8810 0001809 102.1365 317.5475 14.61757572257795
CZ-4B R/B               
1 27432U 02024C   25359.74106375  .00000044  00000+0  45768-4 0  9994
2 27432  98.8980  48.4664 0049384 232.2758 237.9035 14.14530571218787
MIDORI II (ADEOS-II)    
1 27597U 02056A   25359.73698245  .00000311  00000+0  14029-3 0  9994
2 27597  98.7656 312.7626 0000851 146.1948 213.9288 14.29214219199734
H-2A R/B                
1 27601U 02056E   25359.80131543  .00000421  00000+0  16225-3 0  9993
2 27601  98.3086 318.0392 0070861  22.6991  38.3522 14.33687298203525
CZ-4B R/B               
1 28059U 03049C   25359.86876514  .00000442  00000+0  11295-3 0  9999
2 28059  98.6799 346.9292 0049389  96.8146 263.8673 14.54921629175861
CZ-2C R/B               
1 28222U 04012C   25359.73006508  .00038919  00000+0  54618-3 0  9992
2 28222  97.7393  53.4314 0016663 219.5735 140.4303 15.56480106192744
SL-16 R/B               
1 28353U 04021B   25359.42066674  .00000162  00000+0  10931-3 0  9992
2 28353  71.0004  28.3537 0004604 178.7045 181.4090 14.14579851112337
CZ-4B R/B               
1 28415U 04035C   25359.66335793  .00008473  00000+0  31231-3 0  9992
2 28415  97.3593  29.8350 0031765 229.4184 130.4290 15.27577878168604
CZ-2C R/B               
1 28480U 04046B   25359.79078110  .00000299  00000+0  12618-3 0  9993
2 28480  98.1997 274.3581 0139860  13.9108 346.5865 14.26948428 97962
ARIANE 5 R/B            
1 28499U 04049H   25359.52211438  .00001382  00000+0  15934-3 0  9997
2 28499  98.2528 160.2624 0083514 230.9740 128.4019 14.85044595134788
CZ-2D R/B               
1 28738U 05024B   25359.53975715  .00030742  00000+0  47713-3 0  9995
2 28738  97.3631   7.3282 0003485 312.7118  47.3841 15.53926865128248
